H1 CPF 01  gfz 2021 07 04 00  6851 terrasarx 
H2 0702601  6201 31698    2021 07 04 00 59 42 2021 07 09 00 00 42   120 1 1  0 0 0
H9
10 0 59399  20142.000000  0    1214913.439   -751025.376  -6745534.665
10 0 59399  20262.000000  0     308297.381   -866531.990  -6833467.655
10 0 59399  20382.000000  0    -605405.862   -951106.432  -6802237.360
10 0 59399  20502.000000  0   -1509820.946  -1003302.763  -6652379.662
10 0 59399  20622.000000  0   -2388707.429  -1022516.558  -6386471.098
10 0 59399  20742.000000  0   -3226244.839  -1008990.417  -6009087.982
10 0 59399  20862.000000  0   -4007311.739   -963801.234  -5526736.945
10 0 59399  20982.000000  0   -4717759.205   -888829.042  -4947754.500
10 0 59399  21102.000000  0   -5344670.404   -786707.581  -4282174.012
10 0 59399  21222.000000  0   -5876602.365   -660758.049  -3541563.027
10 0 59399  21342.000000  0   -6303805.927   -514906.143  -2738830.935
10 0 59399  21462.000000  0   -6618416.646   -353584.005  -1888008.938
10 0 59399  21582.000000  0   -6814613.069   -181620.151  -1004006.872
10 0 59399  21702.000000  0   -6888737.615     -4117.863   -102348.127
10 0 59399  21822.000000  0   -6839371.919    173673.801    801109.706
10 0 59399  21942.000000  0   -6667369.584    346492.797   1690460.515
10 0 59399  22062.000000  0   -6375843.703    509197.339   2550038.959
10 0 59399  22182.000000  0   -5970108.042    656896.533   3364705.639
10 0 59399  22302.000000  0   -5457573.199    785075.017   4120121.213
10 0 59399  22422.000000  0   -4847601.816    889708.078   4803002.754
10 0 59399  22542.000000  0   -4151327.071    967364.408   5401358.049
10 0 59399  22662.000000  0   -3381440.058   1015294.425   5904693.723
10 0 59399  22782.000000  0   -2551950.208   1031502.125   6304195.821
10 0 59399  22902.000000  0   -1677923.271   1014799.285   6592879.490
10 0 59399  23022.000000  0    -775201.939    964841.337   6765704.363
10 0 59399  23142.000000  0     139882.833    882143.456   6819655.888
10 0 59399  23262.000000  0    1050806.516    768077.059   6753794.090
10 0 59399  23382.000000  0    1941148.012    624847.213   6569268.914
10 0 59399  23502.000000  0    2794884.438    455450.900   6269301.715
10 0 59399  23622.000000  0    3596680.060    263616.640   5859133.575
10 0 59399  23742.000000  0    4332164.564     53726.213   5345938.882
10 0 59399  23862.000000  0    4988195.047   -169280.082   4738705.814
10 0 59399  23982.000000  0    5553097.717   -400012.980   4048084.645
10 0 59399  24102.000000  0    6016885.085   -632756.272   3286205.557
10 0 59399  24222.000000  0    6371443.517   -861598.882   2466466.987
10 0 59399  24342.000000  0    6610684.718  -1080573.760   1603297.388
10 0 59399  24462.000000  0    6730657.037  -1283800.482    711897.163
10 0 59399  24582.000000  0    6729617.117  -1465628.635   -192035.113
10 0 59399  24702.000000  0    6608055.884  -1620777.755  -1092589.207
10 0 59399  24822.000000  0    6368678.301  -1744469.242  -1973931.842
10 0 59399  24942.000000  0    6016339.148  -1832548.039  -2820593.256
10 0 59399  25062.000000  0    5557935.756  -1881590.535  -3617743.690
10 0 59399  25182.000000  0    5002262.524  -1888996.140  -4351454.594
10 0 59399  25302.000000  0    4359831.516  -1853060.484  -5008940.319
10 0 59399  25422.000000  0    3642662.739  -1773029.587  -5578776.022
10 0 59399  25542.000000  0    2864049.778  -1649133.495  -6051087.066
10 0 59399  25662.000000  0    2038308.585  -1482598.610  -6417708.908
10 0 59399  25782.000000  0    1180512.555  -1275639.026  -6672318.322
10 0 59399  25902.000000  0     306218.096  -1031427.949  -6810531.504
10 0 59399  26022.000000  0    -568813.141   -754049.537  -6829971.274
10 0 59399  26142.000000  0   -1428891.829   -448431.735  -6730303.229
10 0 59399  26262.000000  0   -2258676.153   -120260.611  -6513240.965
10 0 59399  26382.000000  0   -3043439.155    224122.365  -6182518.674
10 0 59399  26502.000000  0   -3769324.670    577838.473  -5743834.284
10 0 59399  26622.000000  0   -4423591.487    933604.373  -5204761.901
10 0 59399  26742.000000  0   -4994839.478   1283876.454  -4574632.534
10 0 59399  26862.000000  0   -5473215.695   1621006.588  -3864384.779
10 0 59399  26982.000000  0   -5850593.496   1937404.940  -3086383.712
10 0 59399  27102.000000  0   -6120721.843   2225705.554  -2254212.558
10 0 59399  27222.000000  0   -6279340.919   2478932.254  -1382438.864
10 0 59399  27342.000000  0   -6324260.224   2690660.791   -486358.630
10 0 59399  27462.000000  0   -6255396.392   2855172.383    418277.082
10 0 59399  27582.000000  0   -6074767.641   2967594.639   1315547.032
10 0 59399  27702.000000  0   -5786445.410   3024026.686   2189648.842
10 0 59399  27822.000000  0   -5396464.243   3021644.110   3025186.193
10 0 59399  27942.000000  0   -4912693.461   2958781.865   3807447.784
10 0 59399  28062.000000  0   -4344672.057   2834991.852   4522672.367
10 0 59399  28182.000000  0   -3703412.905   2651075.053   5158292.468
10 0 59399  28302.000000  0   -3001182.178   2409088.121   5703154.526
10 0 59399  28422.000000  0   -2251257.263   2112324.139   6147712.386
10 0 59399  28542.000000  0   -1467669.099   1765267.354   6484189.457
10 0 59399  28662.000000  0    -664934.971   1373523.694   6706707.764
10 0 59399  28782.000000  0     142211.187    943728.355   6811383.555
10 0 59399  28902.000000  0     939088.546    483432.557   6796390.759
10 0 59399  29022.000000  0    1711335.247       971.183   6661990.548
10 0 59399  29142.000000  0    2445165.973   -494687.268   6410527.629
10 0 59399  29262.000000  0    3127617.908   -994106.768   6046392.884
10 0 59399  29382.000000  0    3746782.084  -1487562.093   5575951.958
10 0 59399  29502.000000  0    4292015.217  -1965227.955   5007439.293
10 0 59399  29622.000000  0    4754127.352  -2417374.354   4350819.853
10 0 59399  29742.000000  0    5125544.410  -2834565.547   3617620.491
10 0 59399  29862.000000  0    5400440.994  -3207858.340   2820729.664
10 0 59399  29982.000000  0    5574837.888  -3528993.863   1974169.369
10 0 59399  30102.000000  0    5646663.022  -3790579.567   1092845.814
10 0 59399  30222.000000  0    5615774.943  -3986256.614    192280.698
10 0 59399  30342.000000  0    5483947.022  -4110847.137   -711669.658
10 0 59399  30462.000000  0    5254812.936  -4160478.895  -1603103.004
10 0 59399  30582.000000  0    4933774.349  -4132682.376  -2466359.509
10 0 59399  30702.000000  0    4527873.417  -4026459.373  -3286303.279
10 0 59399  30822.000000  0    4045634.547  -3842321.442  -4048591.514
10 0 59399  30942.000000  0    3496879.158  -3582297.390  -4739925.148
10 0 59399  31062.000000  0    2892519.403  -3249910.485  -5348277.050
10 0 59399  31182.000000  0    2244335.803  -2850126.503  -5863093.015
10 0 59399  31302.000000  0    1564745.401  -2389275.931  -6275464.127
10 0 59399  31422.000000  0     866563.520  -1874950.585  -6578271.774
10 0 59399  31542.000000  0     162762.841  -1315875.129  -6766300.090
10 0 59399  31662.000000  0    -533764.016   -721758.795  -6836315.482
10 0 59399  31782.000000  0   -1210434.849   -103129.302  -6787115.352
10 0 59399  31902.000000  0   -1855199.981    528849.377  -6619546.216
10 0 59399  32022.000000  0   -2456751.836   1162573.220  -6336490.189
10 0 59399  32142.000000  0   -3004718.986   1786205.835  -5942820.915
10 0 59399  32262.000000  0   -3489843.435   2387894.596  -5445329.296
10 0 59399  32382.000000  0   -3904139.491   2955993.554  -4852618.474
10 0 59399  32502.000000  0   -4241030.517   3479288.572  -4174965.733
10 0 59399  32622.000000  0   -4495458.726   3947219.857  -3424153.690
10 0 59399  32742.000000  0   -4663966.947   4350098.265  -2613274.172
10 0 59399  32862.000000  0   -4744751.011   4679309.780  -1756504.700
10 0 59399  32982.000000  0   -4737679.942   4927503.385   -868862.338
10 0 59399  33102.000000  0   -4644283.708   5088757.988     34062.571
10 0 59399  33222.000000  0   -4467705.099   5158722.367    936386.948
10 0 59399  33342.000000  0   -4212620.762   5134724.629   1822222.675
10 0 59399  33462.000000  0   -3885129.086   5015846.992   2675967.092
10 0 59399  33582.000000  0   -3492609.053   4802964.349   3482586.093
10 0 59399  33702.000000  0   -3043554.993   4498746.925   4227884.526
10 0 59399  33822.000000  0   -2547392.032   4107627.250   4898759.801
10 0 59399  33942.000000  0   -2014275.508   3635731.315   5483433.425
10 0 59399  34062.000000  0   -1454880.043   3090776.134   5971655.795
10 0 59399  34182.000000  0    -880182.987   2481936.766   6354881.055
10 0 59399  34302.000000  0    -301248.011   1819685.940   6626409.360
10 0 59399  34422.000000  0     270987.076   1115611.122   6781498.295
10 0 59399  34542.000000  0     825916.799    382209.571   6817440.524
10 0 59399  34662.000000  0    1353463.468   -367332.911   6733607.521
10 0 59399  34782.000000  0    1844259.273  -1119378.268   6531460.860
10 0 59399  34902.000000  0    2289812.451  -1860083.663   6214528.368
10 0 59399  35022.000000  0    2682655.309  -2575656.033   5788347.584
10 0 59399  35142.000000  0    3016471.909  -3252610.379   5260374.335
10 0 59399  35262.000000  0    3286201.924  -3878026.621   4639858.063
10 0 59399  35382.000000  0    3488120.227  -4439800.614   3937685.568
10 0 59399  35502.000000  0    3619889.956  -4926884.826   3166193.075
10 0 59399  35622.000000  0    3680586.897  -5329511.927   2338950.260
10 0 59399  35742.000000  0    3670695.169  -5639396.935   1470519.414
10 0 59399  35862.000000  0    3592073.581  -5849912.169    576194.009
10 0 59399  35982.000000  0    3447893.593  -5956229.575   -328276.943
10 0 59399  36102.000000  0    3242551.655  -5955430.007  -1226974.582
10 0 59399  36222.000000  0    2981554.329  -5846572.119  -2104100.266
10 0 59399  36342.000000  0    2671382.641  -5630721.903  -2944260.079
10 0 59399  36462.000000  0    2319338.324  -5310941.678  -3732741.158
10 0 59399  36582.000000  0    1933375.173  -4892238.440  -4455771.762
99
